prediction:
  azimuth_start: 163
  azimuth_stop: 347
  azimuth_tca: null
  max_elevation: 82
  tca: null
  time_start: 2020-04-17 19:27:00
  time_stop: 2020-04-17 19:41:00
satellite:
  name: Delfi-C3
  noradid: '32789'
  tle:
    line1: 1 32789U 08021G   20107.08010223 +.00001422 +00000-0 +97280-4 0  9995
    line2: 2 32789 097.4252 152.0452 0012695 162.5707 197.5959 15.07594486652412
station:
  name: DopTrack
  position:
    altitude: 95
    latitude: 51.9989
    longitude: 4.3733585
tracking:
  epoch: 2020-04-17 19:27:03.656153
  fca: 145868214.22550765
  fca_error: 0.2990334578196901
  tca: 2020-04-17 19:34:16.021324
  tca_error: 0.015604079748471235
